#aV2014  5 12  0  0  0.00000000     288 DD+AD WGS84 FIT  NGA
## 1792  86400.00000000   300.00000000 56789 0.0000000000000
+   31     1  2  3  4  5  7  8  9 10 11 12 13 14 15 16 17 18
+         19 20 21 22 23 24 25 26 27 28 29 30 31 32  0  0  0
+          0  0  0  0  0  0  0  0  0  0  0  0  0  0  0  0  0
+          0  0  0  0  0  0  0  0  0  0  0  0  0  0  0  0  0
+          0  0  0  0  0  0  0  0  0  0  0  0  0  0  0  0  0
++         2  2  2  2  2  2  2  2  2  2  2  2  2  2  2  2  2
++         2  2  2  2  2  2  2  2  2  2  2  2  2  2  0  0  0
++         0  0  0  0  0  0  0  0  0  0  0  0  0  0  0  0  0
++         0  0  0  0  0  0  0  0  0  0  0  0  0  0  0  0  0
++         0  0  0  0  0  0  0  0  0  0  0  0  0  0  0  0  0
%c cc cc ccc ccc cccc cccc cccc cccc ccccc ccccc ccccc ccccc
%c cc cc ccc ccc cccc cccc cccc cccc ccccc ccccc ccccc ccccc
%f  0.0000000  0.000000000  0.00000000000  0.000000000000000
%f  0.0000000  0.000000000  0.00000000000  0.000000000000000
%i    0    0    0    0      0      0      0      0         0
%i    0    0    0    0      0      0      0      0         0
/*      NGA, ST. LOUIS,MO.                                  
/*   EPHEMERIS COMPUTED FROM  1 DAYS OF DATA                
/*   EPOCHA SMOOTHER                                       
/* CCCCCCCCCCCCCCCCCCCCCCCCCCCCCCCCCCCCCCCCCCCCCCCCCCCCCCCCC
*  2014  5 12  0 55  0.00000000
P  1  13810.992089  -8192.856204  21103.454227     11.899287                    
V  1   4244.844558  26566.201963   7660.655410      0.012893                    
P  2 -13890.339657 -16950.334959 -15047.349047    494.806454                    
V  2   -875.435127 -19599.928416  21963.110900      0.021619                    
P  3  25767.000805   6780.049283   -767.185836    363.562873                    
V  3  -1112.000638   3219.803828 -31131.024125      0.049554                    
P  4  -7018.671430 -25129.014557  -4557.338986      6.865572                    
V  4   2803.732601  -5929.385833  30673.427948      0.000647                    
P  5 -17435.976661  -4304.716325 -19653.872620   -373.426511                    
V  5  18833.417527 -16297.550369 -12999.682535      0.024623                    
P  7   7091.348036 -21305.502859 -13846.275860    345.265560                    
V  7   4099.158389  17460.431191 -24969.195629      0.042285                    
P  8   2785.917017 -25603.359897  -4803.877910     13.526810                    
V  8   2243.450125   6356.237885 -32162.162855      0.002351                    
P  9  -1509.041986 -26300.752400  -2951.766758    326.879078                    
V  9   2646.211755   2778.423431 -32054.783713      0.027548                    
P 10  -1763.400622 -17212.996002 -20382.440866   -125.172576                    
V 10  20994.524814 -14193.927131  10767.017186     -0.015960                    
P 11  17446.875524   -392.098033  19575.747157   -488.165766                    
V 11  10264.504540  24152.412072  -8245.747485     -0.031393                    
P 12 -23110.028326  10092.776055   7892.996089    204.339199                    
V 12   7085.783147  -7540.832358  30350.711248      0.024596                    
P 13  12733.722901  -9540.235666 -21427.563327      0.731414                    
V 13  23382.015032  13134.098102   7939.996515     -0.038236                    
P 14   5688.806155  17615.174403  19321.155756    173.705761                    
V 14 -21955.312211  -9736.376455  15370.381042     -0.034185                    
P 15 -25178.965060  -2593.266339   8463.907556   -178.962369                    
V 15  -9069.825343  -6573.867088 -28512.934794     -0.021758                    
P 16  16929.987333   4468.598378 -20132.197278   -218.908445                    
V 16 -20485.303781  14815.751613 -13619.367207      0.018861                    
P 17  -6977.822550 -17576.658275  18998.303850    -92.393069                    
V 17  21810.966781   8780.714259  16136.559765     -0.031243                    
P 18 -14056.064777  20349.331575   9671.754363    318.665400                    
V 18 -11541.691984   4463.463558 -27783.147681      0.023424                    
P 19  24706.929188   7157.203638   7361.652902   -456.330792                    
V 19   7335.885458   6288.312494 -29726.830366     -0.022119                    
P 20  22117.356273 -13116.873567   6329.382252    188.535531                    
V 20  -3756.585604   8344.209314  29616.728668      0.038356                    
P 21  -4376.095565  23548.652232 -10333.738209   -360.553220                    
V 21  -5757.606064 -13591.604010 -27349.770844     -0.022327                    
P 22  -2263.739791  19303.342456  18246.155251    233.539848                    
V 22 -19320.796350  12529.279961 -15999.788277      0.028580                    
P 23  22327.514871  -1813.773121 -14485.469040    -19.752109                    
V 23  16198.055190   9019.129009  23251.965632     -0.031036                    
P 24 -15040.433123   2818.797441  21685.040752    -28.221100                    
V 24  -4129.416417 -27295.379468    775.967511     -0.006194                    
P 25 -19115.642034  17988.323664  -3610.263249     23.657153                    
V 25  -5030.526712    875.952149  31751.013971      0.006220                    
P 26 -22908.787444 -13678.430099  -2079.924073     81.589684                    
V 26   2574.196146   -990.120327 -31741.824355     -0.117349                    
P 27  22978.312556  12631.744960  -4426.753119    -16.771973                    
V 27  -6185.496654    340.551227 -31110.195562      0.016932                    
P 28   7237.469185 -18981.609260  17640.434356    354.067135                    
V 28  18202.579540 -10958.556406 -20079.166764      0.028728                    
P 29 -13453.321054   9457.684464 -20806.360600    531.892563                    
V 29 -23631.600060 -12011.913723   9848.359353      0.026482                    
P 30   1909.580787 -26034.776204  -4829.792459     -9.883849                    
V 30   3179.040688   5956.147548 -30935.759800     -0.048193                    
P 31   7950.055012  23814.829959  -8012.471048    334.252919                    
V 31  -1273.583935  10643.503220  30107.357232     -0.000471                    
P 32  21282.085935   -434.070613  15596.350666   -430.878678                    
V 32 -15365.476981  12979.302916  21946.798409      0.081050                    
EOF
